NORAD_CAT_ID,OBJECT_NAME,OBJECT_TYPE,EPOCH,MEAN_MOTION,ECCENTRICITY,INCLINATION,RA_OF_ASC_NODE,ARG_OF_PERICENTER,MEAN_ANOMALY,BSTAR,MEAN_MOTION_DOT,MEAN_MOTION_DDOT,TLE_LINE0,TLE_LINE1,TLE_LINE2,SEMIMAJOR_AXIS,PERIOD,APOGEE,PERIGEE,DECAYED
52685.0,STARLINK-4029,PAYLOAD,2022-10-04 12:38:18,15.08852805,0.0002061,53.2186,5.2865,49.5227,310.5944,5.5289e-05,5.92e-06,0.0,0 STARLINK-4029,1 52685U 22053AF  22277.52660665  .00000592  00000-0  55289-4 0  9993,2 52685  53.2186   5.2865 0002061  49.5227 310.5944 15.08852805 22087,6917.840999999999,95.437,541.132,538.28,0.0
52685.0,STARLINK-4029,PAYLOAD,2022-10-05 06:07:33,15.08842905,0.0001949,53.2196,2.0172,45.7414,314.3738,-5.7659e-05,-1.206e-05,0.0,0 STARLINK-4029,1 52685U 22053AF  22278.25524819 -.00001206  00000-0 -57659-4 0  9992,2 52685  53.2196   2.0172 0001949  45.7414 314.3738 15.08842905 21828,6917.871999999999,95.437,541.085,538.388,0.0
52685.0,STARLINK-4029,PAYLOAD,2022-10-05 10:53:43,15.08833591,0.000196,53.22,1.1236,46.1322,313.9832,-0.00022936,-3.936e-05,0.0,0 STARLINK-4029,1 52685U 22053AF  22278.45397362 -.00003936  00000-0 -22936-3 0  9996,2 52685  53.2200   1.1236 0001960  46.1322 313.9832 15.08833591 21855,6917.9,95.438,541.121,538.409,0.0
52685.0,STARLINK-4029,PAYLOAD,2022-10-06 12:19:54,15.08832059,0.0001924,53.219,356.3668,37.4657,322.6469,-7.134699999999998e-07,-3e-06,0.0,0 STARLINK-4029,1 52685U 22053AF  22279.51382350 -.00000300  00000-0 -71347-6 0  9990,2 52685  53.2190 356.3668 0001924  37.4657 322.6469 15.08832059 22381,6917.905,95.438,541.101,538.439,0.0
52685.0,STARLINK-4029,PAYLOAD,2022-10-06 13:55:17,15.08835605,0.0001935,53.2195,356.0697,39.3464,320.7669,2.8786000000000007e-06,-2.42e-06,0.0,0 STARLINK-4029,1 52685U 22053AF  22279.58006160 -.00000242  00000-0  28786-5 0  9991,2 52685  53.2195 356.0697 0001935  39.3464 320.7669 15.08835605 22396,6917.894,95.438,541.097,538.42,0.0
52685.0,STARLINK-4029,PAYLOAD,2022-10-06 21:52:12,15.08848473,0.0001868,53.2213,354.5829,41.5584,318.555,6.1506e-05,6.91e-06,0.0,0 STARLINK-4029,1 52685U 22053AF  22279.91125495  .00000691  00000-0  61506-4 0  9994,2 52685  53.2213 354.5829 0001868  41.5584 318.5550 15.08848473 22076,6917.854,95.437,541.012,538.427,0.0
52685.0,STARLINK-4029,PAYLOAD,2022-10-07 12:10:40,15.08839927,0.0001901,53.2195,351.9075,37.9168,322.1958,0.00023318,3.425e-05,0.0,0 STARLINK-4029,1 52685U 22053AF  22280.50741331  .00003425  00000-0  23318-3 0  9990,2 52685  53.2195 351.9075 0001901  37.9168 322.1958 15.08839927 22532,6917.880999999999,95.438,541.061,538.431,0.0
52685.0,STARLINK-4029,PAYLOAD,2022-10-07 15:21:26,15.08839079,0.0001898,53.2198,351.3121,41.3149,318.7986,0.00021393,3.118e-05,0.0,0 STARLINK-4029,1 52685U 22053AF  22280.63989429  .00003118  00000-0  21393-3 0  9996,2 52685  53.2198 351.3121 0001898  41.3149 318.7986 15.08839079 22556,6917.8830000000025,95.438,541.061,538.435,0.0
52685.0,STARLINK-4029,PAYLOAD,2022-10-08 04:04:32,15.08834149,0.0001862,53.2198,348.9328,44.2159,315.8982,0.00013343,1.836e-05,0.0,0 STARLINK-4029,1 52685U 22053AF  22281.16982053  .00001836  00000-0  13343-3 0  9992,2 52685  53.2198 348.9328 0001862  44.2159 315.8982 15.08834149 22266,6917.898,95.438,541.0509999999998,538.475,0.0
52685.0,STARLINK-4029,PAYLOAD,2022-10-08 12:01:28,15.08827571,0.0001879,53.2201,347.4485,44.8944,315.22,8.2604e-05,1.026e-05,0.0,0 STARLINK-4029,1 52685U 22053AF  22281.50102697  .00001026  00000-0  82604-4 0  9996,2 52685  53.2201 347.4485 0001879  44.8944 315.2200 15.08827571 22689,6917.918000000002,95.438,541.0830000000002,538.484,0.0
52685.0,STARLINK-4029,PAYLOAD,2022-10-08 16:47:37,15.08832972,0.0001695,53.2193,346.5523,54.0336,306.0813,3.8269e-05,3.21e-06,0.0,0 STARLINK-4029,1 52685U 22053AF  22281.69974532  .00000321  00000-0  38269-4 0  9996,2 52685  53.2193 346.5523 0001695  54.0336 306.0813 15.08832972 22719,6917.901999999999,95.438,540.939,538.594,0.0
52685.0,STARLINK-4029,PAYLOAD,2022-10-09 11:52:15,15.0884203,0.0002086999999999,53.2203,342.9883,44.1899,315.9259,-7.505399999999999e-05,-1.483e-05,0.0,0 STARLINK-4029,1 52685U 22053AF  22282.49462293 -.00001483  00000-0 -75054-4 0  9996,2 52685  53.2203 342.9883 0002087  44.1899 315.9259 15.08842030 22832,6917.874,95.437,541.183,538.295,0.0
52685.0,STARLINK-4029,PAYLOAD,2022-10-09 16:38:24,15.08843892,0.0002218,53.22,342.0929,37.8164,322.2984,-4.5581e-05,-1.014e-05,0.0,0 STARLINK-4029,1 52685U 22053AF  22282.69334009 -.00001014  00000-0 -45581-4 0  9993,2 52685  53.2200 342.0929 0002218  37.8164 322.2984 15.08843892 22867,6917.868,95.437,541.268,538.1990000000002,0.0
52685.0,STARLINK-4029,PAYLOAD,2022-10-10 10:07:38,15.0883976,0.0001813,53.2197,338.8233,40.1982,319.9144,3.7415e-05,3.07e-06,0.0,0 STARLINK-4029,1 52685U 22053AF  22283.42197841  .00000307  00000-0  37415-4 0  9995,2 52685  53.2197 338.8233 0001813  40.1982 319.9144 15.08839760 22970,6917.880999999999,95.438,541.0,538.492,0.0
52685.0,STARLINK-4029,PAYLOAD,2022-10-10 13:18:24,15.08843984,0.0001725,53.2199,338.2263,51.0559,309.0586,3.3848e-05,2.51e-06,0.0,0 STARLINK-4029,1 52685U 22053AF  22283.55445548  .00000251  00000-0  33848-4 0  9993,2 52685  53.2199 338.2263 0001725  51.0559 309.0586 15.08843984 22627,6917.868,95.437,540.927,538.54,0.0
52685.0,STARLINK-4029,PAYLOAD,2022-10-10 21:15:20,15.08837324,0.0001940999999999,53.2191,336.7412,45.0438,315.0711,0.00011411,1.528e-05,0.0,0 STARLINK-4029,1 52685U 22053AF  22283.88565820  .00001528  00000-0  11411-3 0  9994,2 52685  53.2191 336.7412 0001941  45.0438 315.0711 15.08837324 23042,6917.889,95.438,541.096,538.411,0.0
52685.0,STARLINK-4029,PAYLOAD,2022-10-11 09:58:27,15.08815478,0.0002289,53.2198,334.3665,41.0755,319.041,-0.00011974,-2.192e-05,0.0,0 STARLINK-4029,1 52685U 22053AF  22284.41560074 -.00002192  00000-0 -11974-3 0  9994,2 52685  53.2198 334.3665 0002289  41.0755 319.0410 15.08815478 22750,6917.955,95.439,541.404,538.237,0.0
52685.0,STARLINK-4029,PAYLOAD,2022-10-11 13:09:13,15.08821284,0.0002144,53.2197,333.7706,40.6509,319.4643,-8.559899999999999e-05,-1.65e-05,0.0,0 STARLINK-4029,1 52685U 22053AF  22284.54807707 -.00001650  00000-0 -85599-4 0  9998,2 52685  53.2197 333.7706 0002144  40.6509 319.4643 15.08821284 23148,6917.938,95.439,541.286,538.319,0.0
52685.0,STARLINK-4029,PAYLOAD,2022-10-12 03:27:41,15.08830448,0.0001953,53.2176,331.09,35.9537,324.1586,-7.5058e-05,-1.482e-05,0.0,0 STARLINK-4029,1 52685U 22053AF  22285.14423478 -.00001482  00000-0 -75058-4 0  9996,2 52685  53.2176 331.0900 0001953  35.9537 324.1586 15.08830448 22866,6917.91,95.438,541.126,538.424,0.0
52685.0,STARLINK-4029,PAYLOAD,2022-10-12 13:00:00,15.08834958,0.0002153,53.2184,329.3074,30.7971,329.3147,-4.570600000000001e-05,-1.016e-05,0.0,0 STARLINK-4029,1 52685U 22053AF  22285.54167410 -.00001016  00000-0 -45706-4 0  9991,2 52685  53.2184 329.3074 0002153  30.7971 329.3147 15.08834958 23293,6917.896,95.438,541.25,538.271,0.0
52685.0,STARLINK-4029,PAYLOAD,2022-10-13 11:15:24,15.08827943,0.0002171999999999,53.2185,325.144,33.5772,326.5357,0.00021409,3.12e-05,0.0,0 STARLINK-4029,1 52685U 22053AF  22286.46903817  .00003120  00000-0  21409-3 0  9991,2 52685  53.2185 325.1440 0002172  33.5772 326.5357 15.08827943 23430,6917.917,95.438,541.285,538.28,0.0
52685.0,STARLINK-4029,PAYLOAD,2022-10-13 14:26:11,15.08830985,0.0002168,53.2185,324.5498,34.6366,325.4767,0.00023819,3.504e-05,0.0,0 STARLINK-4029,1 52685U 22053AF  22286.60151746  .00003504  00000-0  23819-3 0  9996,2 52685  53.2185 324.5498 0002168  34.6366 325.4767 15.08830985 23086,6917.908,95.438,541.273,538.273,0.0
52685.0,STARLINK-4029,PAYLOAD,2022-10-13 19:12:20,15.08838659,0.0002206,53.219,323.6576,35.4415,324.6724,0.00026147,3.875e-05,0.0,0 STARLINK-4029,1 52685U 22053AF  22286.80023346  .00003875  00000-0  26147-3 0  9990,2 52685  53.2190 323.6576 0002206  35.4415 324.6724 15.08838659 23480,6917.884,95.438,541.276,538.2230000000002,0.0
52685.0,STARLINK-4029,PAYLOAD,2022-10-14 09:30:48,15.08835755,0.0002242,53.2196,320.9805,37.974,322.141,0.00016188,2.289e-05,0.0,0 STARLINK-4029,1 52685U 22053AF  22287.39639999  .00002289  00000-0  16188-3 0  9994,2 52685  53.2196 320.9805 0002242  37.9740 322.1410 15.08835755 23578,6917.893,95.438,541.309,538.207,0.0
52685.0,STARLINK-4029,PAYLOAD,2022-10-14 14:16:58,15.08834308,0.0002227,53.2189,320.0892,37.2669,322.8478,0.00013926,1.928e-05,0.0,0 STARLINK-4029,1 52685U 22053AF  22287.59512210  .00001928  00000-0  13926-3 0  9998,2 52685  53.2189 320.0892 0002227  37.2669 322.8478 15.08834308 23601,6917.898,95.438,541.303,538.222,0.0
52685.0,STARLINK-4029,PAYLOAD,2022-10-15 01:24:39,15.08847098,0.0002294,53.2189,318.0075,37.0128,323.1022,0.00016576,2.351e-05,0.0,0 STARLINK-4029,1 52685U 22053AF  22288.05879318  .00002351  00000-0  16576-3 0  9990,2 52685  53.2189 318.0075 0002294  37.0128 323.1022 15.08847098 23309,6917.859,95.437,541.311,538.137,0.0
52685.0,STARLINK-4029,PAYLOAD,2022-10-15 12:32:22,15.08836068,0.0002723,53.2174,315.925,37.0889,323.0291,-8.7872e-05,-1.687e-05,0.0,0 STARLINK-4029,1 52685U 22053AF  22288.52247837 -.00001687  00000-0 -87872-4 0  9998,2 52685  53.2174 315.9250 0002723  37.0889 323.0291 15.08836068 23374,6917.892,95.438,541.641,537.874,0.0
52685.0,STARLINK-4029,PAYLOAD,2022-10-16 01:15:27,15.08837334,0.0002521,53.218,313.5473,37.1142,323.0024,-0.00010452,-1.951e-05,0.0,0 STARLINK-4029,1 52685U 22053AF  22289.05239796 -.00001951  00000-0 -10452-3 0  9995,2 52685  53.2180 313.5473 0002521  37.1142 323.0024 15.08837334 23822,6917.889,95.438,541.498,538.01,0.0
52685.0,STARLINK-4029,PAYLOAD,2022-10-16 18:44:42,15.08834951,0.0002269,53.2183,310.2757,37.422,322.693,4.023e-05,3.52e-06,0.0,0 STARLINK-4029,1 52685U 22053AF  22289.78104287  .00000352  00000-0  40230-4 0  9991,2 52685  53.2183 310.2757 0002269  37.4220 322.6930 15.08834951 23567,6917.896,95.438,541.33,538.191,0.0
